LEO 1 (LEO VANTAGE 1)   
1 43113U 18004C   26068.70632107  .00005709  00000+0  39603-3 0  9997
2 43113  99.2469 334.0284 0352942  24.8540 336.9207 14.67184901422891
STARLINK-34990          
1 65244U 25179K   26068.65168744  .00007412  00000+0  51733-3 0  9993
2 65244  97.6033 112.9434 0001933  92.0260 268.1188 15.05652828 31875
